IRIDIUM 159             
1 43578U 18061K   25017.61689322  .00000542  00000+0  18655-3 0  9993
2 43578  86.3952 272.1355 0002120  78.2900 281.8533 14.34220959339484
IRIDIUM 180             
1 43922U 19002A   25017.61639043  .00000153  00000+0  47444-4 0  9994
2 43922  86.3971 209.0217 0001895  91.6940 268.4473 14.34217708315098
IRIDIUM 176             
1 43923U 19002B   25017.55601318  .00000627  00000+0  95635-4 0  9993
2 43923  86.6099 209.0516 0001786  56.7396 303.3992 14.72240935323387
IRIDIUM 168             
1 43924U 19002C   25017.61003315  .00000127  00000+0  38346-4 0  9995
2 43924  86.3973 209.0869 0001997  86.5144 273.6280 14.34219215315074
IRIDIUM 173             
1 43925U 19002D   25017.59734844  .00000129  00000+0  38836-4 0  9997
2 43925  86.3969 209.0024 0001936  92.3953 267.7464 14.34219235315057
IRIDIUM 169             
1 43926U 19002E   25017.56578250  .00000562  00000+0  17722-3 0  9993
2 43926  86.4203 240.6213 0001223 143.8301 216.2981 14.38612635316092
IRIDIUM 172             
1 43927U 19002F   25017.59100385  .00000003  00000+0 -61252-5 0  9997
2 43927  86.3975 209.0114 0001864  87.0930 273.0479 14.34217566315064
IRIDIUM 175             
1 43928U 19002G   25017.34675333  .00002008  00000+0  31443-3 0  9994
2 43928  86.1538 170.2437 0002555 118.8567 241.2906 14.72243116323346
